IRIDIUM 7               
1 24793U 97020B   25011.58468572  .00000522  00000+0  17396-3 0  9994
2 24793  86.3942 242.4905 0001715  85.3518 274.7874 14.35711453449425
IRIDIUM 5               
1 24795U 97020D   25011.50393655  .00004686  00000+0  40694-3 0  9999
2 24795  86.3929 155.8323 0113126 340.8706  18.8287 14.91897130462082
IRIDIUM 4               
1 24796U 97020E   25011.59728573  .00000495  00000+0  16164-3 0  9999
2 24796  86.3940 239.4640 0001958  82.1475 277.9944 14.36623045449988
IRIDIUM 914             
1 24836U 97030A   25011.61850507  .00000636  00000+0  19352-3 0  9990
2 24836  86.3918 248.5326 0003103  54.5482 305.6007 14.40595926584581
IRIDIUM 16              
1 24841U 97030F   25011.62278878  .00000648  00000+0  20611-3 0  9995
2 24841  86.4021 271.0584 0001600 155.2503 204.8772 14.38460092444499
IRIDIUM 911             
1 24842U 97030G   25011.26154165  .00000992  00000+0  26555-3 0  9993
2 24842  86.4446 270.1412 0012063 261.0639  98.9198 14.47289844452387
IRIDIUM 17              
1 24870U 97034B   25011.79182649  .00000743  00000+0  24143-3 0  9999
2 24870  86.3967 300.5488 0002902 118.0780 242.0711 14.37569530441119
IRIDIUM 920             
1 24871U 97034C   25011.81976474  .00000713  00000+0  21449-3 0  9993
2 24871  86.3966 280.1125 0009634 232.6539 127.3783 14.41276871444311
